[{"OBJECT_NAME":"IRIDIUM 142","OBJECT_ID":"2018-030H","EPOCH":"2026-03-09T19:54:27.398592","MEAN_MOTION":14.34217645,"ECCENTRICITY":0.000204,"INCLINATION":86.4006,"RA_OF_ASC_NODE":331.9079,"ARG_OF_PERICENTER":94.7375,"MEAN_ANOMALY":265.4053,"EPHEMERIS_TYPE":0,"CLASSIFICATION_TYPE":"U","NORAD_CAT_ID":43256,"ELEMENT_SET_NO":999,"REV_AT_EPOCH":41589,"BSTAR":-2.157633e-6,"MEAN_MOTION_DOT":1.4e-7,"MEAN_MOTION_DDOT":0},{"OBJECT_NAME":"FENGYUN 1C DEB","OBJECT_ID":"1999-025RZ","EPOCH":"2026-03-09T18:40:11.528544","MEAN_MOTION":14.28419116,"ECCENTRICITY":0.0059714,"INCLINATION":98.8427,"RA_OF_ASC_NODE":156.8205,"ARG_OF_PERICENTER":318.8159,"MEAN_ANOMALY":165.1608,"EPHEMERIS_TYPE":0,"CLASSIFICATION_TYPE":"U","NORAD_CAT_ID":30120,"ELEMENT_SET_NO":999,"REV_AT_EPOCH":98613,"BSTAR":0.0014735384,"MEAN_MOTION_DOT":3.712e-5,"MEAN_MOTION_DDOT":0}]
